[{"OBJECT_NAME":"SITRO-AIS 6 (CHIRKIN)","OBJECT_ID":"2023-091AC","EPOCH":"2026-03-09T23:26:09.745152","MEAN_MOTION":15.244139,"ECCENTRICITY":0.00142211,"INCLINATION":97.5181,"RA_OF_ASC_NODE":131.6463,"ARG_OF_PERICENTER":95.0602,"MEAN_ANOMALY":265.2259,"EPHEMERIS_TYPE":0,"CLASSIFICATION_TYPE":"U","NORAD_CAT_ID":57192,"ELEMENT_SET_NO":999,"REV_AT_EPOCH":14916,"BSTAR":0.00035317072,"MEAN_MOTION_DOT":8.613e-5,"MEAN_MOTION_DDOT":0},{"OBJECT_NAME":"UNICORN-2L","OBJECT_ID":"2023-185R","EPOCH":"2026-03-09T22:52:50.754144","MEAN_MOTION":15.19481875,"ECCENTRICITY":0.00120211,"INCLINATION":97.5467,"RA_OF_ASC_NODE":142.778,"ARG_OF_PERICENTER":300.2318,"MEAN_ANOMALY":59.7725,"EPHEMERIS_TYPE":0,"CLASSIFICATION_TYPE":"U","NORAD_CAT_ID":58727,"ELEMENT_SET_NO":999,"REV_AT_EPOCH":11971,"BSTAR":0.00055843151,"MEAN_MOTION_DOT":0.0001181,"MEAN_MOTION_DDOT":0}]
